[{"OBJECT_NAME":"TIANHUI 2-02B","OBJECT_ID":"2021-074B","EPOCH":"2026-03-09T12:16:24.599712","MEAN_MOTION":15.16781044,"ECCENTRICITY":0.0002039,"INCLINATION":97.4828,"RA_OF_ASC_NODE":73.0429,"ARG_OF_PERICENTER":85.7356,"MEAN_ANOMALY":274.411,"EPHEMERIS_TYPE":0,"CLASSIFICATION_TYPE":"U","NORAD_CAT_ID":49072,"ELEMENT_SET_NO":999,"REV_AT_EPOCH":25216,"BSTAR":0.0001397,"MEAN_MOTION_DOT":2.676e-5,"MEAN_MOTION_DDOT":0},{"OBJECT_NAME":"OBJECT B","OBJECT_ID":"2024-094B","EPOCH":"2026-03-09T23:16:02.635680","MEAN_MOTION":15.16281585,"ECCENTRICITY":0.00049641,"INCLINATION":97.3969,"RA_OF_ASC_NODE":142.4807,"ARG_OF_PERICENTER":78.7476,"MEAN_ANOMALY":281.4315,"EPHEMERIS_TYPE":0,"CLASSIFICATION_TYPE":"U","NORAD_CAT_ID":59806,"ELEMENT_SET_NO":999,"REV_AT_EPOCH":10012,"BSTAR":0.00045081306,"MEAN_MOTION_DOT":8.669e-5,"MEAN_MOTION_DDOT":0}]
